{
  "links" : {
    "next" : "https://api.nasa.gov/neo/rest/v1/feed?start_date=2005-05-09&end_date=2005-05-09&detailed=true&api_key=t0TVs3DtDT2H8Oy2Zy8m2eVrNsAVKAexjcZXUckd",
    "prev" : "https://api.nasa.gov/neo/rest/v1/feed?start_date=2005-05-07&end_date=2005-05-07&detailed=true&api_key=t0TVs3DtDT2H8Oy2Zy8m2eVrNsAVKAexjcZXUckd",
    "self" : "https://api.nasa.gov/neo/rest/v1/feed?start_date=2005-05-08&end_date=2005-05-08&detailed=true&api_key=t0TVs3DtDT2H8Oy2Zy8m2eVrNsAVKAexjcZXUckd"
  },
  "element_count" : 3,
  "near_earth_objects" : {
    "2005-05-08" : [ {
      "links" : {
        "self" : "https://api.nasa.gov/neo/rest/v1/neo/3447917?api_key=t0TVs3DtDT2H8Oy2Zy8m2eVrNsAVKAexjcZXUckd"
      },
      "neo_reference_id" : "3447917",
      "name" : "(2009 DC1)",
      "nasa_jpl_url" : "http://ssd.jpl.nasa.gov/sbdb.cgi?sstr=3447917",
      "absolute_magnitude_h" : 24.0,
      "estimated_diameter" : {
        "kilometers" : {
          "estimated_diameter_min" : 0.0421264611,
          "estimated_diameter_max" : 0.0941976306
        },
        "meters" : {
          "estimated_diameter_min" : 42.1264610556,
          "estimated_diameter_max" : 94.1976305719
        },
        "miles" : {
          "estimated_diameter_min" : 0.0261761612,
          "estimated_diameter_max" : 0.0585316759
        },
        "feet" : {
          "estimated_diameter_min" : 138.2101784897,
          "estimated_diameter_max" : 309.0473542854
        }
      },
      "is_potentially_hazardous_asteroid" : false,
      "close_approach_data" : [ {
        "close_approach_date" : "2005-05-08",
        "epoch_date_close_approach" : 1115535600000,
        "relative_velocity" : {
          "kilometers_per_second" : "10.8145122385",
          "kilometers_per_hour" : "38932.2440587397",
          "miles_per_hour" : "24190.9824263874"
        },
        "miss_distance" : {
          "astronomical" : "0.1885762449",
          "lunar" : "73.3561630249",
          "kilometers" : "28210606",
          "miles" : "17529258"
        },
        "orbiting_body" : "Earth"
      } ],
      "orbital_data" : {
        "orbit_id" : "12",
        "orbit_determination_date" : "2017-04-06 09:01:18",
        "orbit_uncertainty" : "6",
        "minimum_orbit_intersection" : ".031809",
        "jupiter_tisserand_invariant" : "6.737",
        "epoch_osculation" : "2458000.5",
        "eccentricity" : ".2763376578483633",
        "semi_major_axis" : ".8732695486883912",
        "inclination" : "8.78381142887817",
        "ascending_node_longitude" : "329.6513691998349",
        "orbital_period" : "298.0718077010372",
        "perihelion_distance" : ".631952286933544",
        "perihelion_argument" : "34.91155068670692",
        "aphelion_distance" : "1.114586810443238",
        "perihelion_time" : "2458056.158875002943",
        "mean_anomaly" : "292.7772889505993",
        "mean_motion" : "1.207762662214187",
        "equinox" : "J2000"
      }
    }, {
      "links" : {
        "self" : "https://api.nasa.gov/neo/rest/v1/neo/3590075?api_key=t0TVs3DtDT2H8Oy2Zy8m2eVrNsAVKAexjcZXUckd"
      },
      "neo_reference_id" : "3590075",
      "name" : "(2011 XC)",
      "nasa_jpl_url" : "http://ssd.jpl.nasa.gov/sbdb.cgi?sstr=3590075",
      "absolute_magnitude_h" : 20.9,
      "estimated_diameter" : {
        "kilometers" : {
          "estimated_diameter_min" : 0.1756123185,
          "estimated_diameter_max" : 0.3926810818
        },
        "meters" : {
          "estimated_diameter_min" : 175.6123184804,
          "estimated_diameter_max" : 392.6810818086
        },
        "miles" : {
          "estimated_diameter_min" : 0.1091204019,
          "estimated_diameter_max" : 0.2440006365
        },
        "feet" : {
          "estimated_diameter_min" : 576.1559189633,
          "estimated_diameter_max" : 1288.3238004408
        }
      },
      "is_potentially_hazardous_asteroid" : false,
      "close_approach_data" : [ {
        "close_approach_date" : "2005-05-08",
        "epoch_date_close_approach" : 1115535600000,
        "relative_velocity" : {
          "kilometers_per_second" : "11.8664372458",
          "kilometers_per_hour" : "42719.1740850107",
          "miles_per_hour" : "26544.0334752112"
        },
        "miss_distance" : {
          "astronomical" : "0.3461246404",
          "lunar" : "134.6424865723",
          "kilometers" : "51779512",
          "miles" : "32174296"
        },
        "orbiting_body" : "Earth"
      } ],
      "orbital_data" : {
        "orbit_id" : "23",
        "orbit_determination_date" : "2017-04-06 08:51:47",
        "orbit_uncertainty" : "0",
        "minimum_orbit_intersection" : ".172916",
        "jupiter_tisserand_invariant" : "5.047",
        "epoch_osculation" : "2458000.5",
        "eccentricity" : ".1340156090941103",
        "semi_major_axis" : "1.256399741600756",
        "inclination" : "21.60031078668381",
        "ascending_node_longitude" : "75.66658654475431",
        "orbital_period" : "514.3872371953353",
        "perihelion_distance" : "1.088022564964447",
        "perihelion_argument" : "63.80278528985676",
        "aphelion_distance" : "1.424776918237064",
        "perihelion_time" : "2458036.805752902967",
        "mean_anomaly" : "334.5909888504779",
        "mean_motion" : ".6998618433125942",
        "equinox" : "J2000"
      }
    }, {
      "links" : {
        "self" : "https://api.nasa.gov/neo/rest/v1/neo/3753073?api_key=t0TVs3DtDT2H8Oy2Zy8m2eVrNsAVKAexjcZXUckd"
      },
      "neo_reference_id" : "3753073",
      "name" : "(2016 JB18)",
      "nasa_jpl_url" : "http://ssd.jpl.nasa.gov/sbdb.cgi?sstr=3753073",
      "absolute_magnitude_h" : 27.3,
      "estimated_diameter" : {
        "kilometers" : {
          "estimated_diameter_min" : 0.0092162655,
          "estimated_diameter_max" : 0.0206081961
        },
        "meters" : {
          "estimated_diameter_min" : 9.216265485,
          "estimated_diameter_max" : 20.6081961232
        },
        "miles" : {
          "estimated_diameter_min" : 0.0057267201,
          "estimated_diameter_max" : 0.0128053354
        },
        "feet" : {
          "estimated_diameter_min" : 30.2370924539,
          "estimated_diameter_max" : 67.6121941689
        }
      },
      "is_potentially_hazardous_asteroid" : false,
      "close_approach_data" : [ {
        "close_approach_date" : "2005-05-08",
        "epoch_date_close_approach" : 1115535600000,
        "relative_velocity" : {
          "kilometers_per_second" : "10.0807974475",
          "kilometers_per_hour" : "36290.8708108862",
          "miles_per_hour" : "22549.7358102421"
        },
        "miss_distance" : {
          "astronomical" : "0.2271755384",
          "lunar" : "88.3712844849",
          "kilometers" : "33984976",
          "miles" : "21117286"
        },
        "orbiting_body" : "Earth"
      } ],
      "orbital_data" : {
        "orbit_id" : "13",
        "orbit_determination_date" : "2017-04-06 08:26:01",
        "orbit_uncertainty" : "6",
        "minimum_orbit_intersection" : ".00326112",
        "jupiter_tisserand_invariant" : "5.551",
        "epoch_osculation" : "2458000.5",
        "eccentricity" : ".1487966644448211",
        "semi_major_axis" : "1.123250321505556",
        "inclination" : "1.890468263939641",
        "ascending_node_longitude" : "208.4075653976075",
        "orbital_period" : "434.823747071172",
        "perihelion_distance" : ".956114420328956",
        "perihelion_argument" : "304.6581462028865",
        "aphelion_distance" : "1.290386222682155",
        "perihelion_time" : "2457880.308211077952",
        "mean_anomaly" : "99.50938582214783",
        "mean_motion" : ".8279216634897246",
        "equinox" : "J2000"
      }
    } ]
  }
}